*******************************************************************************
 Revised: July 31, 2013                  Sun                                 10

 PHYSICAL PROPERTIES (updated 2018-Aug-15):
  GM, km^3/s^2          = 132712440041.93938  Mass, 10^24 kg        = ~1988500
  Vol. mean radius, km  = 695700              Volume, 10^12 km^3    = 1412000
  Solar radius (IAU)    = 696000 km           Mean density, g/cm^3  = 1.408
  Radius (photosphere)  = 696500 km           Angular diam at 1 AU  = 1919.3"
  Photosphere temp., K  = 6600 (bottom)       Photosphere temp., K  = 4400(top)
  Photospheric depth    = ~500 km             Chromospheric depth   = ~2500 km
  Flatness, f           = 0.00005             Adopted sid. rot. per.= 25.38 d
  Surface gravity       =  274.0 m/s^2        Escape speed, km/s    =  617.7
  Pole (RA,DEC), deg.   = (286.13, 63.87)     Obliquity to ecliptic = 7.25 deg.
  Solar constant (1 AU) = 1367.6 W/m^2        Luminosity, 10^24 J/s = 382.8
  Mass-energy conv rate = 4.260 x 10^9 kg/s   Effective temp, K     = 5772
  Sunspot cycle         = 11.4 yr             Cycle 24 sunspot min. = 2008 A.D.

  Motion relative to nearby stars = apex : R.A.= 271 deg.; DEC.= +30 deg.
                                    speed: 19.4 km/s (0.0112 au/day)
  Motion relative to 2.73K BB/CBR = apex : l= 264.7 +- 0.8; b= 48.2 +- 0.5 deg.
                                    speed: 369 +-11 km/s
*******************************************************************************


*******************************************************************************
Ephemeris / WWW_USER Mon Oct  3 12:20:51 2022 Pasadena, USA      / Horizons
*******************************************************************************
Target body name: Sun (10)                        {source: DE441}
Center body name: Solar System Barycenter (0)     {source: DE441}
Center-site name: BODY CENTER
*******************************************************************************
Start time      : A.D. 2025-Jul-23 00:00:00.0000 TDB
Stop  time      : A.D. 2025-Sep-23 00:00:00.0000 TDB
Step-size       : 1440 minutes
*******************************************************************************
Center geodetic : 0.00000000,0.00000000,0.0000000 {E-lon(deg),Lat(deg),Alt(km)}
Center cylindric: 0.00000000,0.00000000,0.0000000 {E-lon(deg),Dxy(km),Dz(km)}
Center radii    : (undefined)                                                  
Output units    : KM-S
Output type     : GEOMETRIC cartesian states
Output format   : 2 (position and velocity)
Reference frame : Ecliptic of J2000.0
*******************************************************************************
JDTDB
   X     Y     Z
   VX    VY    VZ
*******************************************************************************
$$SOE
2460879.500000000 = A.D. 2025-Jul-23 00:00:00.0000 TDB 
 X =-6.365642830308676E+05 Y =-8.115842543518191E+05 Z = 2.303645597604493E+04
 VX= 1.272264841189136E-02 VY=-2.701825485684614E-03 VZ=-2.343902037548767E-04
2460880.500000000 = A.D. 2025-Jul-24 00:00:00.0000 TDB 
 X =-6.354649177808041E+05 Y =-8.118169467263395E+05 Z = 2.301619340214942E+04
 VX= 1.272562086413324E-02 VY=-2.684560125929710E-03 VZ=-2.346507540301953E-04
2460881.500000000 = A.D. 2025-Jul-25 00:00:00.0000 TDB 
 X =-6.343652958347687E+05 Y =-8.120481442703515E+05 Z = 2.299590834520955E+04
 VX= 1.272859022027730E-02 VY=-2.667222847948965E-03 VZ=-2.349106285884037E-04
2460882.500000000 = A.D. 2025-Jul-26 00:00:00.0000 TDB 
 X =-6.332654175185116E+05 Y =-8.122778407491839E+05 Z = 2.297560086775129E+04
 VX= 1.273155514186654E-02 VY=-2.649813163398939E-03 VZ=-2.351697315339869E-04
2460883.500000000 = A.D. 2025-Jul-27 00:00:00.0000 TDB 
 X =-6.321652832708753E+05 Y =-8.125060298848220E+05 Z = 2.295527104059572E+04
 VX= 1.273451434938658E-02 VY=-2.632330555041165E-03 VZ=-2.354279665358869E-04
2460884.500000000 = A.D. 2025-Jul-28 00:00:00.0000 TDB 
 X =-6.310648936387324E+05 Y =-8.127327053528174E+05 Z = 2.293491894295026E+04
 VX= 1.273746662147371E-02 VY=-2.614774462901308E-03 VZ=-2.356852355884205E-04
2460885.500000000 = A.D. 2025-Jul-29 00:00:00.0000 TDB 
 X =-6.299642492720304E+05 Y =-8.129578607779568E+05 Z = 2.291454466261325E+04
 VX= 1.274041079304506E-02 VY=-2.597144269158068E-03 VZ=-2.359414375654248E-04
2460886.500000000 = A.D. 2025-Jul-30 00:00:00.0000 TDB 
 X =-6.288633509190707E+05 Y =-8.131814897285465E+05 Z = 2.289414829631650E+04
 VX= 1.274334575173506E-02 VY=-2.579439281285768E-03 VZ=-2.361964664807656E-04
2460887.500000000 = A.D. 2025-Jul-31 00:00:00.0000 TDB 
 X =-6.277621994221791E+05 Y =-8.134035857091695E+05 Z = 2.287372995023243E+04
 VX= 1.274627043227214E-02 VY=-2.561658713472576E-03 VZ=-2.364502094224717E-04
2460888.500000000 = A.D. 2025-Aug-01 00:00:00.0000 TDB 
 X =-6.266607957139715E+05 Y =-8.136241421517587E+05 Z = 2.285328974067437E+04
 VX= 1.274918380827418E-02 VY=-2.543801666283951E-03 VZ=-2.367025441096292E-04
2460889.500000000 = A.D. 2025-Aug-02 00:00:00.0000 TDB 
 X =-6.255591408144617E+05 Y =-8.138431524048377E+05 Z = 2.283282779502764E+04
 VX= 1.275208488079052E-02 VY=-2.525867104558657E-03 VZ=-2.369533360090945E-04
2460890.500000000 = A.D. 2025-Aug-03 00:00:00.0000 TDB 
 X =-6.244572358293306E+05 Y =-8.140606097207780E+05 Z = 2.281234425295063E+04
 VX= 1.275497266277315E-02 VY=-2.507853833612342E-03 VZ=-2.372024349431250E-04
2460891.500000000 = A.D. 2025-Aug-04 00:00:00.0000 TDB 
 X =-6.233550819497451E+05 Y =-8.142765072409342E+05 Z = 2.279183926789369E+04
 VX= 1.275784615851884E-02 VY=-2.489760473981466E-03 VZ=-2.374496711191170E-04
2460892.500000000 = A.D. 2025-Aug-05 00:00:00.0000 TDB 
 X =-6.222526804542105E+05 Y =-8.144908379785497E+05 Z = 2.277131300898810E+04
 VX= 1.276070433698851E-02 VY=-2.471585435168073E-03 VZ=-2.376948505188524E-04
2460893.500000000 = A.D. 2025-Aug-06 00:00:00.0000 TDB 
 X =-6.211500327130362E+05 Y =-8.147035947993766E+05 Z = 2.275076566336333E+04
 VX= 1.276354609777953E-02 VY=-2.453326889143726E-03 VZ=-2.379377495969248E-04
2460894.500000000 = A.D. 2025-Aug-07 00:00:00.0000 TDB 
 X =-6.200471401961060E+05 Y =-8.149147704000358E+05 Z = 2.273019743895257E+04
 VX= 1.276637022840094E-02 VY=-2.434982744738652E-03 VZ=-2.381781092563816E-04
2460895.500000000 = A.D. 2025-Aug-08 00:00:00.0000 TDB 
 X =-6.189440044847697E+05 Y =-8.151243572842563E+05 Z = 2.270960856785177E+04
 VX= 1.276917535138084E-02 VY=-2.416550624480014E-03 VZ=-2.384156280940632E-04
2460896.500000000 = A.D. 2025-Aug-09 00:00:00.0000 TDB 
 X =-6.178406272887982E+05 Y =-8.153323477372926E+05 Z = 2.268899931029172E+04
 VX= 1.277195985961960E-02 VY=-2.398027845951023E-03 VZ=-2.386499549386676E-04
2460897.500000000 = A.D. 2025-Aug-10 00:00:00.0000 TDB 
 X =-6.167370104695356E+05 Y =-8.155387337990956E+05 Z = 2.266836995928164E+04
 VX= 1.277472183899890E-02 VY=-2.379411411194966E-03 VZ=-2.388806808855572E-04
2460898.500000000 = A.D. 2025-Aug-11 00:00:00.0000 TDB 
 X =-6.156331560699788E+05 Y =-8.157435072367066E+05 Z = 2.264772084595083E+04
 VX= 1.277745897775058E-02 VY=-2.360698005888618E-03 VZ=-2.391073309124921E-04
2460899.500000000 = A.D. 2025-Aug-12 00:00:00.0000 TDB 
 X =-6.145290663541341E+05 Y =-8.159466595180652E+05 Z = 2.262705234562716E+04
 VX= 1.278016845858338E-02 VY=-2.341884020661504E-03 VZ=-2.393293557265534E-04
2460900.500000000 = A.D. 2025-Aug-13 00:00:00.0000 TDB 
 X =-6.134247438550731E+05 Y =-8.161481817874389E+05 Z = 2.260636488458002E+04
 VX= 1.278284684706990E-02 VY=-2.322965583267631E-03 VZ=-2.395461241650141E-04
2460901.500000000 = A.D. 2025-Aug-14 00:00:00.0000 TDB 
 X =-6.123201914341390E+05 Y =-8.163480648457673E+05 Z = 2.258565894738294E+04
 VX= 1.278548995687395E-02 VY=-2.303938632921095E-03 VZ=-2.397569169161060E-04
2460902.500000000 = A.D. 2025-Aug-15 00:00:00.0000 TDB 
 X =-6.112154123515617E+05 Y =-8.165462991385865E+05 Z = 2.256493508470379E+04
 VX= 1.278809271921828E-02 VY=-2.284799023955096E-03 VZ=-2.399609230304660E-04
2460903.500000000 = A.D. 2025-Aug-16 00:00:00.0000 TDB 
 X =-6.101104103482355E+05 Y =-8.167428747546662E+05 Z = 2.254419392124080E+04
 VX= 1.279064905590955E-02 VY=-2.265542671976286E-03 VZ=-2.401572402361301E-04
2460904.500000000 = A.D. 2025-Aug-17 00:00:00.0000 TDB 
 X =-6.090051897379869E+05 Y =-8.169377814394285E+05 Z = 2.252343616341182E+04
 VX= 1.279315176588289E-02 VY=-2.246165750788817E-03 VZ=-2.403448806463761E-04
2460905.500000000 = A.D. 2025-Aug-18 00:00:00.0000 TDB 
 X =-6.078997555084516E+05 Y =-8.171310086276887E+05 Z = 2.250266260625172E+04
 VX= 1.279559244269150E-02 VY=-2.226664942716277E-03 VZ=-2.405227836730239E-04
2460906.500000000 = A.D. 2025-Aug-19 00:00:00.0000 TDB 
 X =-6.067941134269724E+05 Y =-8.173225455002236E+05 Z = 2.248187413882115E+04
 VX= 1.279796144464752E-02 VY=-2.207037738554951E-03 VZ=-2.406898378280304E-04
2460907.500000000 = A.D. 2025-Aug-20 00:00:00.0000 TDB 
 X =-6.056882701459759E+05 Y =-8.175123810680303E+05 Z = 2.246107174730219E+04
 VX= 1.280024794041851E-02 VY=-2.187282776248550E-03 VZ=-2.408449126132702E-04
2460908.500000000 = A.D. 2025-Aug-21 00:00:00.0000 TDB 
 X =-6.045822333003909E+05 Y =-8.177005042868755E+05 Z = 2.244025651488523E+04
 VX= 1.280244005079982E-02 VY=-2.167400199482604E-03 VZ=-2.409869008624077E-04
2460909.500000000 = A.D. 2025-Aug-22 00:00:00.0000 TDB 
 X =-6.034760115880799E+05 Y =-8.178869042027316E+05 Z = 2.241942961757188E+04
 VX= 1.280452510211640E-02 VY=-2.147392008756304E-03 VZ=-2.411147707095807E-04
2460910.500000000 = A.D. 2025-Aug-23 00:00:00.0000 TDB 
 X =-6.023696148232641E+05 Y =-8.180715701259300E+05 Z = 2.239859231514914E+04
 VX= 1.280648999825836E-02 VY=-2.127262368100436E-03 VZ=-2.412276248173918E-04
2460911.500000000 = A.D. 2025-Aug-24 00:00:00.0000 TDB 
 X =-6.012630539527974E+05 Y =-8.182544918282464E+05 Z = 2.237774593688024E+04
 VX= 1.280832170672347E-02 VY=-2.107017820472521E-03 VZ=-2.413247626013147E-04
